[{"OBJECT_NAME":"KUIPER-00070","OBJECT_ID":"2025-151B","EPOCH":"2026-03-09T20:32:33.833760","MEAN_MOTION":14.799361,"ECCENTRICITY":9.451e-5,"INCLINATION":51.9,"RA_OF_ASC_NODE":304.8248,"ARG_OF_PERICENTER":102.7727,"MEAN_ANOMALY":257.3341,"EPHEMERIS_TYPE":0,"CLASSIFICATION_TYPE":"U","NORAD_CAT_ID":64817,"ELEMENT_SET_NO":999,"REV_AT_EPOCH":3644,"BSTAR":0.00022632458,"MEAN_MOTION_DOT":1.505e-5,"MEAN_MOTION_DDOT":0},{"OBJECT_NAME":"CZ-6A DEB","OBJECT_ID":"2022-151KY","EPOCH":"2026-03-09T16:19:48.774432","MEAN_MOTION":14.74179774,"ECCENTRICITY":0.00332687,"INCLINATION":98.5942,"RA_OF_ASC_NODE":119.8006,"ARG_OF_PERICENTER":214.3499,"MEAN_ANOMALY":145.5556,"EPHEMERIS_TYPE":0,"CLASSIFICATION_TYPE":"U","NORAD_CAT_ID":54548,"ELEMENT_SET_NO":999,"REV_AT_EPOCH":17539,"BSTAR":0.0029849461,"MEAN_MOTION_DOT":0.00019871,"MEAN_MOTION_DDOT":0}]
